{
    "links": {
        "self": "http://www.neowsapp.com/rest/v1/neo/3325503?api_key=iIulBulltgU6a56xZRHN4H3l9WmuAYTsLGpBGhQ2"
    },
    "id": "3325503",
    "neo_reference_id": "3325503",
    "name": "(2006 EE)",
    "designation": "2006 EE",
    "nasa_jpl_url": "http://ssd.jpl.nasa.gov/sbdb.cgi?sstr=3325503",
    "absolute_magnitude_h": 23.6,
    "estimated_diameter": {
        "kilometers": {
            "estimated_diameter_min": 0.0506471459,
            "estimated_diameter_max": 0.1132504611
        },
        "meters": {
            "estimated_diameter_min": 50.6471458835,
            "estimated_diameter_max": 113.2504610618
        },
        "miles": {
            "estimated_diameter_min": 0.0314706677,
            "estimated_diameter_max": 0.0703705522
        },
        "feet": {
            "estimated_diameter_min": 166.1651821003,
            "estimated_diameter_max": 371.5566426699
        }
    },
    "is_potentially_hazardous_asteroid": false,
    "close_approach_data": [
        {
            "close_approach_date": "2006-03-18",
            "close_approach_date_full": "2006-Mar-18 11:26",
            "epoch_date_close_approach": 1142681160000,
            "relative_velocity": {
                "kilometers_per_second": "7.5268421806",
                "kilometers_per_hour": "27096.6318503094",
                "miles_per_hour": "16836.793273877"
            },
            "miss_distance": {
                "astronomical": "0.0737909606",
                "lunar": "28.7046836734",
                "kilometers": "11038970.531013922",
                "miles": "6859298.2180872436"
            },
            "orbiting_body": "Earth"
        }
    ],
    "orbital_data": {
        "orbit_id": "10",
        "orbit_determination_date": "2017-04-06 09:08:58",
        "first_observation_date": "2006-03-03",
        "last_observation_date": "2006-03-11",
        "data_arc_in_days": 8,
        "observations_used": 41,
        "orbit_uncertainty": "9",
        "minimum_orbit_intersection": ".0606019",
        "jupiter_tisserand_invariant": "4.081",
        "epoch_osculation": "2453802.5",
        "eccentricity": ".3891093376434704",
        "semi_major_axis": "1.713541604194691",
        "inclination": "8.82561660227425",
        "ascending_node_longitude": "353.5912246774711",
        "orbital_period": "819.2951934370536",
        "perihelion_distance": "1.046786565561965",
        "perihelion_argument": "199.7864403828308",
        "aphelion_distance": "2.380296642827417",
        "perihelion_time": "2453825.419994107168",
        "mean_anomaly": "349.9289072550693",
        "mean_motion": ".439402065194294",
        "equinox": "J2000",
        "orbit_class": {
            "orbit_class_type": "AMO",
            "orbit_class_description": "Near-Earth asteroid orbits similar to that of 1221 Amor",
            "orbit_class_range": "1.017 AU < q (perihelion) < 1.3 AU"
        }
    },
    "is_sentry_object": false
}